ONEWEB-0141             
1 47287U 20100AF  26065.24753428 -.00000209  00000+0 -61501-3 0  9993
2 47287  87.9004  11.0756 0001912  69.7123 290.4211 13.12441400251174
ONEWEB-0142             
1 47288U 20100AG  26065.23596409  .00000126  00000+0  31579-3 0  9995
2 47288  87.8999  11.1025 0002142  72.3344 287.8019 13.12442776251160
ONEWEB-0143             
1 47289U 20100AH  26065.24597644 -.00000237  00000+0 -69357-3 0  9999
2 47289  87.9000  11.0969 0001791  78.8879 281.2451 13.12441520251146
ONEWEB-0144             
1 47290U 20100AJ  26065.21716757 -.00000653  00000+0 -18503-2 0  9994
2 47290  87.9006  11.0711 0002084  79.1564 280.9799 13.12446938251060
ONEWEB-0145             
1 47291U 20100AK  26065.26461315 -.00000288  00000+0 -83706-3 0  9999
2 47291  87.9002  11.1008 0001898  80.1348 279.9995 13.12442833251269
ONEWEB-0146             
1 47292U 20100AL  26065.26120584 -.00000384  00000+0 -11024-2 0  9990
2 47292  87.8997  11.0866 0001437  82.4083 277.7208 13.12442945251170
ONEWEB-0147             
1 47293U 20100AM  26065.30358946  .00000411  00000+0  11081-2 0  9993
2 47293  87.9008  11.0579 0001925  86.5346 273.6003 13.12441993251074
ONEWEB-0115             
1 48042U 21025A   26065.25978205 -.00000124  00000+0 -37347-3 0  9990
2 48042  87.9046 340.6909 0001691  78.3740 281.7579 13.13470126240082
ONEWEB-0152             
1 48043U 21025B   26065.27332583  .00000174  00000+0  44148-3 0  9996
2 48043  87.9042 340.6898 0001620  79.8660 280.2652 13.13470173240049
ONEWEB-0153             
1 48044U 21025C   26065.25131997 -.00000304  00000+0 -86830-3 0  9992
2 48044  87.9041 340.6993 0001777  77.8930 282.2398 13.13469721240031
ONEWEB-0154             
1 48045U 21025D   26065.24793011 -.00000249  00000+0 -71652-3 0  9997
2 48045  87.9040 340.6978 0001722  81.9784 278.1541 13.13470387239994
ONEWEB-0116             
1 48046U 21025E   26065.21069312  .00000498  00000+0  13295-2 0  9997
2 48046  87.9050 340.6929 0001592  82.0892 278.0418 13.13469765240137
ONEWEB-0150             
1 48047U 21025F   26065.26316781 -.00000037  00000+0 -13726-3 0  9999
2 48047  87.9045 340.6804 0001734  73.8363 286.2957 13.13470069240030
ONEWEB-0107             
1 48048U 21025G   26065.26486015 -.00000087  00000+0 -27248-3 0  9997
2 48048  87.9050 340.6747 0001972  76.6009 283.5339 13.13469726240015
ONEWEB-0101             
1 48049U 21025H   26065.22762537  .00000202  00000+0  51889-3 0  9995
2 48049  87.9038 340.7087 0001842  80.8674 279.2664 13.13468907239988
ONEWEB-0113             
1 48050U 21025J   26065.21154810 -.00001133  00000+0 -31153-2 0  9992
2 48050  87.9044 340.6329 0001425  84.9208 275.2084 13.13959157240087
