[{"OBJECT_NAME":"ONEWEB-0141","OBJECT_ID":"2020-100AF","EPOCH":"2026-03-06T05:56:26.961792","MEAN_MOTION":13.124414,"ECCENTRICITY":0.00019121,"INCLINATION":87.9004,"RA_OF_ASC_NODE":11.0756,"ARG_OF_PERICENTER":69.7123,"MEAN_ANOMALY":290.4211,"EPHEMERIS_TYPE":0,"CLASSIFICATION_TYPE":"U","NORAD_CAT_ID":47287,"ELEMENT_SET_NO":999,"REV_AT_EPOCH":25117,"BSTAR":-0.00061500777,"MEAN_MOTION_DOT":-2.09e-6,"MEAN_MOTION_DDOT":0},{"OBJECT_NAME":"ONEWEB-0142","OBJECT_ID":"2020-100AG","EPOCH":"2026-03-06T05:39:47.297376","MEAN_MOTION":13.12442776,"ECCENTRICITY":0.00021427,"INCLINATION":87.8999,"RA_OF_ASC_NODE":11.1025,"ARG_OF_PERICENTER":72.3344,"MEAN_ANOMALY":287.8019,"EPHEMERIS_TYPE":0,"CLASSIFICATION_TYPE":"U","NORAD_CAT_ID":47288,"ELEMENT_SET_NO":999,"REV_AT_EPOCH":25116,"BSTAR":0.00031578543,"MEAN_MOTION_DOT":1.26e-6,"MEAN_MOTION_DDOT":0},{"OBJECT_NAME":"ONEWEB-0143","OBJECT_ID":"2020-100AH","EPOCH":"2026-03-06T05:54:12.364416","MEAN_MOTION":13.1244152,"ECCENTRICITY":0.00017914,"INCLINATION":87.9,"RA_OF_ASC_NODE":11.0969,"ARG_OF_PERICENTER":78.8879,"MEAN_ANOMALY":281.2451,"EPHEMERIS_TYPE":0,"CLASSIFICATION_TYPE":"U","NORAD_CAT_ID":47289,"ELEMENT_SET_NO":999,"REV_AT_EPOCH":25114,"BSTAR":-0.00069357447,"MEAN_MOTION_DOT":-2.37e-6,"MEAN_MOTION_DDOT":0},{"OBJECT_NAME":"ONEWEB-0144","OBJECT_ID":"2020-100AJ","EPOCH":"2026-03-06T05:12:43.278048","MEAN_MOTION":13.12446938,"ECCENTRICITY":0.00020845,"INCLINATION":87.9006,"RA_OF_ASC_NODE":11.0711,"ARG_OF_PERICENTER":79.1564,"MEAN_ANOMALY":280.9799,"EPHEMERIS_TYPE":0,"CLASSIFICATION_TYPE":"U","NORAD_CAT_ID":47290,"ELEMENT_SET_NO":999,"REV_AT_EPOCH":25106,"BSTAR":-0.0018502981,"MEAN_MOTION_DOT":-6.53e-6,"MEAN_MOTION_DDOT":0},{"OBJECT_NAME":"ONEWEB-0145","OBJECT_ID":"2020-100AK","EPOCH":"2026-03-06T06:21:02.576160","MEAN_MOTION":13.12442833,"ECCENTRICITY":0.00018987,"INCLINATION":87.9002,"RA_OF_ASC_NODE":11.1008,"ARG_OF_PERICENTER":80.1348,"MEAN_ANOMALY":279.9995,"EPHEMERIS_TYPE":0,"CLASSIFICATION_TYPE":"U","NORAD_CAT_ID":47291,"ELEMENT_SET_NO":999,"REV_AT_EPOCH":25126,"BSTAR":-0.00083705936,"MEAN_MOTION_DOT":-2.88e-6,"MEAN_MOTION_DDOT":0},{"OBJECT_NAME":"ONEWEB-0146","OBJECT_ID":"2020-100AL","EPOCH":"2026-03-06T06:16:08.184576","MEAN_MOTION":13.12442945,"ECCENTRICITY":0.00014372,"INCLINATION":87.8997,"RA_OF_ASC_NODE":11.0866,"ARG_OF_PERICENTER":82.4083,"MEAN_ANOMALY":277.7208,"EPHEMERIS_TYPE":0,"CLASSIFICATION_TYPE":"U","NORAD_CAT_ID":47292,"ELEMENT_SET_NO":999,"REV_AT_EPOCH":25117,"BSTAR":-0.0011023944,"MEAN_MOTION_DOT":-3.84e-6,"MEAN_MOTION_DDOT":0},{"OBJECT_NAME":"ONEWEB-0147","OBJECT_ID":"2020-100AM","EPOCH":"2026-03-06T07:17:10.129344","MEAN_MOTION":13.12441993,"ECCENTRICITY":0.00019255,"INCLINATION":87.9008,"RA_OF_ASC_NODE":11.0579,"ARG_OF_PERICENTER":86.5346,"MEAN_ANOMALY":273.6003,"EPHEMERIS_TYPE":0,"CLASSIFICATION_TYPE":"U","NORAD_CAT_ID":47293,"ELEMENT_SET_NO":999,"REV_AT_EPOCH":25107,"BSTAR":0.0011080562,"MEAN_MOTION_DOT":4.11e-6,"MEAN_MOTION_DDOT":0},{"OBJECT_NAME":"ONEWEB-0115","OBJECT_ID":"2021-025A","EPOCH":"2026-03-06T06:14:05.169120","MEAN_MOTION":13.13470126,"ECCENTRICITY":0.0001691,"INCLINATION":87.9046,"RA_OF_ASC_NODE":340.6909,"ARG_OF_PERICENTER":78.374,"MEAN_ANOMALY":281.7579,"EPHEMERIS_TYPE":0,"CLASSIFICATION_TYPE":"U","NORAD_CAT_ID":48042,"ELEMENT_SET_NO":999,"REV_AT_EPOCH":24008,"BSTAR":-0.000373468,"MEAN_MOTION_DOT":-1.24e-6,"MEAN_MOTION_DDOT":0},{"OBJECT_NAME":"ONEWEB-0152","OBJECT_ID":"2021-025B","EPOCH":"2026-03-06T06:33:35.351712","MEAN_MOTION":13.13470173,"ECCENTRICITY":0.00016208,"INCLINATION":87.9042,"RA_OF_ASC_NODE":340.6898,"ARG_OF_PERICENTER":79.866,"MEAN_ANOMALY":280.2652,"EPHEMERIS_TYPE":0,"CLASSIFICATION_TYPE":"U","NORAD_CAT_ID":48043,"ELEMENT_SET_NO":999,"REV_AT_EPOCH":24004,"BSTAR":0.00044147903,"MEAN_MOTION_DOT":1.74e-6,"MEAN_MOTION_DDOT":0},{"OBJECT_NAME":"ONEWEB-0153","OBJECT_ID":"2021-025C","EPOCH":"2026-03-06T06:01:54.045408","MEAN_MOTION":13.13469721,"ECCENTRICITY":0.00017771,"INCLINATION":87.9041,"RA_OF_ASC_NODE":340.6993,"ARG_OF_PERICENTER":77.893,"MEAN_ANOMALY":282.2398,"EPHEMERIS_TYPE":0,"CLASSIFICATION_TYPE":"U","NORAD_CAT_ID":48044,"ELEMENT_SET_NO":999,"REV_AT_EPOCH":24003,"BSTAR":-0.00086829521,"MEAN_MOTION_DOT":-3.04e-6,"MEAN_MOTION_DDOT":0},{"OBJECT_NAME":"ONEWEB-0154","OBJECT_ID":"2021-025D","EPOCH":"2026-03-06T05:57:01.161504","MEAN_MOTION":13.13470387,"ECCENTRICITY":0.0001722,"INCLINATION":87.904,"RA_OF_ASC_NODE":340.6978,"ARG_OF_PERICENTER":81.9784,"MEAN_ANOMALY":278.1541,"EPHEMERIS_TYPE":0,"CLASSIFICATION_TYPE":"U","NORAD_CAT_ID":48045,"ELEMENT_SET_NO":999,"REV_AT_EPOCH":23999,"BSTAR":-0.00071651861,"MEAN_MOTION_DOT":-2.49e-6,"MEAN_MOTION_DDOT":0},{"OBJECT_NAME":"ONEWEB-0116","OBJECT_ID":"2021-025E","EPOCH":"2026-03-06T05:03:23.885568","MEAN_MOTION":13.13469765,"ECCENTRICITY":0.00015927,"INCLINATION":87.905,"RA_OF_ASC_NODE":340.6929,"ARG_OF_PERICENTER":82.0892,"MEAN_ANOMALY":278.0418,"EPHEMERIS_TYPE":0,"CLASSIFICATION_TYPE":"U","NORAD_CAT_ID":48046,"ELEMENT_SET_NO":999,"REV_AT_EPOCH":24013,"BSTAR":0.0013295179,"MEAN_MOTION_DOT":4.98e-6,"MEAN_MOTION_DDOT":0},{"OBJECT_NAME":"ONEWEB-0150","OBJECT_ID":"2021-025F","EPOCH":"2026-03-06T06:18:57.698784","MEAN_MOTION":13.13470069,"ECCENTRICITY":0.00017343,"INCLINATION":87.9045,"RA_OF_ASC_NODE":340.6804,"ARG_OF_PERICENTER":73.8363,"MEAN_ANOMALY":286.2957,"EPHEMERIS_TYPE":0,"CLASSIFICATION_TYPE":"U","NORAD_CAT_ID":48047,"ELEMENT_SET_NO":999,"REV_AT_EPOCH":24003,"BSTAR":-0.00013726045,"MEAN_MOTION_DOT":-3.7e-7,"MEAN_MOTION_DDOT":0},{"OBJECT_NAME":"ONEWEB-0107","OBJECT_ID":"2021-025G","EPOCH":"2026-03-06T06:21:23.916960","MEAN_MOTION":13.13469726,"ECCENTRICITY":0.00019727,"INCLINATION":87.905,"RA_OF_ASC_NODE":340.6747,"ARG_OF_PERICENTER":76.6009,"MEAN_ANOMALY":283.5339,"EPHEMERIS_TYPE":0,"CLASSIFICATION_TYPE":"U","NORAD_CAT_ID":48048,"ELEMENT_SET_NO":999,"REV_AT_EPOCH":24001,"BSTAR":-0.0002724803,"MEAN_MOTION_DOT":-8.7e-7,"MEAN_MOTION_DDOT":0},{"OBJECT_NAME":"ONEWEB-0101","OBJECT_ID":"2021-025H","EPOCH":"2026-03-06T05:27:46.831968","MEAN_MOTION":13.13468907,"ECCENTRICITY":0.00018425,"INCLINATION":87.9038,"RA_OF_ASC_NODE":340.7087,"ARG_OF_PERICENTER":80.8674,"MEAN_ANOMALY":279.2664,"EPHEMERIS_TYPE":0,"CLASSIFICATION_TYPE":"U","NORAD_CAT_ID":48049,"ELEMENT_SET_NO":999,"REV_AT_EPOCH":23998,"BSTAR":0.00051889359,"MEAN_MOTION_DOT":2.02e-6,"MEAN_MOTION_DDOT":0},{"OBJECT_NAME":"ONEWEB-0113","OBJECT_ID":"2021-025J","EPOCH":"2026-03-06T05:04:37.755840","MEAN_MOTION":13.13959157,"ECCENTRICITY":0.00014254,"INCLINATION":87.9044,"RA_OF_ASC_NODE":340.6329,"ARG_OF_PERICENTER":84.9208,"MEAN_ANOMALY":275.2084,"EPHEMERIS_TYPE":0,"CLASSIFICATION_TYPE":"U","NORAD_CAT_ID":48050,"ELEMENT_SET_NO":999,"REV_AT_EPOCH":24008,"BSTAR":-0.0031153069,"MEAN_MOTION_DOT":-1.133e-5,"MEAN_MOTION_DDOT":0}]
